BEIDOU-2 IGSO-1 (C06)   
1 36828U 10036A   23119.86048934 -.00000093  00000+0  00000+0 0  9996
2 36828  54.2067 173.3410 0035499 191.4733 269.8202  1.00259487 46757
BEIDOU-2 G4 (C04)       
1 37210U 10057A   23119.61855009 -.00000109  00000+0  00000+0 0  9995
2 37210   0.9174  51.9522 0000545 146.6870  41.3526  1.00272847 45805
BEIDOU-2 IGSO-2 (C07)   
1 37256U 10068A   23119.43542535 -.00000193  00000+0  00000+0 0  9997
2 37256  49.6420 285.8467 0024561 200.2079 356.2960  1.00267375 45313
BEIDOU-2 IGSO-3 (C08)   
1 37384U 11013A   23119.76119003 -.00000186  00000+0  00000+0 0  9998
2 37384  60.7559  51.1402 0022307 186.0311   1.5126  1.00271259 44196
BEIDOU-2 IGSO-4 (C09)   
1 37763U 11038A   23119.60507662 -.00000028  00000+0  00000+0 0  9996
2 37763  54.4845 175.8638 0108717 228.9723 123.5979  1.00258264 43161
BEIDOU-2 IGSO-5 (C10)   
1 37948U 11073A   23120.22537958 -.00000144  00000+0  00000+0 0  9990
2 37948  49.7628 285.4942 0086356 218.5570 249.9716  1.00261513 41933
BEIDOU-2 G5 (C05)       
1 38091U 12008A   23119.91949171  .00000060  00000+0  00000+0 0  9993
2 38091   1.4211  65.0346 0005807 267.0232 275.3737  1.00273411 41006
BEIDOU-2 M3 (C11)       
1 38250U 12018A   23120.19956934 -.00000074  00000+0  00000+0 0  9994
2 38250  56.5743 343.0835 0020976 262.5178 271.4777  1.86231188 74982
BEIDOU-2 M4 (C12)       
1 38251U 12018B   23119.84294804 -.00000075  00000+0  00000+0 0  9997
2 38251  56.4877 342.3981 0011936 267.8848  72.2271  1.86234221 74978
BEIDOU-2 M6 (C14)       
1 38775U 12050B   23120.14841308  .00000055  00000+0  00000+0 0  9993
2 38775  55.6040 101.0341 0014981 323.9295  55.7637  1.86231226 72360
BEIDOU-2 G6 (C02)       
1 38953U 12059A   23119.56196744 -.00000173  00000+0  00000+0 0  9993
2 38953   1.7117  82.3741 0011288 309.7424 111.5400  1.00273076 38437
BEIDOU-3S IGSO-1S (C31) 
1 40549U 15019A   23119.87964108 -.00000158  00000+0  00000+0 0  9990
2 40549  51.3291 309.0603 0036701 191.2021 130.0297  1.00285160 29601
BEIDOU-3S M2S (C57)     
1 40748U 15037A   23119.24738366 -.00000078  00000+0  00000+0 0  9998
2 40748  55.7316 341.0911 0005554  28.0776 181.7147  1.86233309 52797
BEIDOU-3S M1S (C58)     
1 40749U 15037B   23119.73940068 -.00000076  00000+0  00000+0 0  9995
2 40749  55.7351 341.0651 0005697 352.0807 321.5160  1.86232963 52795
BEIDOU-3S IGSO-2S (C56) 
1 40938U 15053A   23119.21433412 -.00000136  00000+0  00000+0 0  9993
2 40938  51.0106 272.2254 0046203 192.4480 285.4270  1.00266908 27870
BEIDOU-2 IGSO-6 (C13)   
1 41434U 16021A   23119.21751236 -.00000157  00000+0  00000+0 0  9991
2 41434  58.5662  49.5768 0047054 226.2628 114.3920  1.00264259 25991
BEIDOU-2 G7 (C03)       
1 41586U 16037A   23119.84424428 -.00000350  00000+0  00000+0 0  9990
2 41586   1.5807  65.8525 0009345 349.1904 216.9859  1.00273337 25305
BEIDOU-3 M1 (C19)       
1 43001U 17069A   23119.83166734  .00000055  00000+0  00000+0 0  9993
2 43001  55.7561 101.0863 0012669 295.7487  28.0948  1.86231552 37288
BEIDOU-3 M2 (C20)       
1 43002U 17069B   23119.82739417  .00000055  00000+0  00000+0 0  9997
2 43002  55.7557 101.1227 0010391 312.3680  51.2710  1.86231192 37285
BEIDOU-3 M7 (C27)       
1 43107U 18003A   23118.84216804 -.00000083  00000+0  00000+0 0  9995
2 43107  55.1868 341.8829 0005557  55.2560 174.5454  1.86232395 36020
BEIDOU-3 M8 (C28)       
1 43108U 18003B   23120.29376520 -.00000075  00000+0  00000+0 0  9991
2 43108  55.1797 341.8211 0002330 279.9999 245.1498  1.86230844 36057
BEIDOU-3 M4 (C22)       
1 43207U 18018A   23119.41641996  .00000053  00000+0  00000+0 0  9996
2 43207  55.7138 101.2041 0007231 327.3661  32.5855  1.86231437 35424
BEIDOU-3 M3 (C21)       
1 43208U 18018B   23120.01994433  .00000055  00000+0  00000+0 0  9994
2 43208  55.7132 101.1873 0010413 302.8844  57.0123  1.86231487 35434
BEIDOU-3 M9 (C29)       
1 43245U 18029A   23119.35078770 -.00000077  00000+0  00000+0 0  9994
2 43245  55.0866 339.6101 0001194  20.7270 100.7597  1.86232544 34579
BEIDOU-3 M10 (C30)      
1 43246U 18029B   23119.40656773 -.00000077  00000+0  10000-3 0  9991
2 43246  55.0827 339.6371 0005009  10.7517 194.9166  1.86232743 34565
BEIDOU-2 IGSO-7 (C16)   
1 43539U 18057A   23119.57412205 -.00000101  00000+0  00000+0 0  9998
2 43539  55.0996 172.9524 0060074 230.3484 133.1672  1.00269855 17682
BEIDOU-3 M5 (C23)       
1 43581U 18062A   23119.33533166 -.00000033  00000+0  00000+0 0  9999
2 43581  54.1990 221.2815 0002572 277.6871  92.1238  1.86231940 32314
BEIDOU-3 M6 (C24)       
1 43582U 18062B   23119.91275237 -.00000031  00000+0  00000+0 0  9994
2 43582  54.1982 221.2508 0004793  21.1710 106.7863  1.86229479 32327
BEIDOU-3 M12 (C26)      
1 43602U 18067A   23119.61242267 -.00000031  00000+0  00000+0 0  9996
2 43602  54.2844 219.9048 0007026  19.4514 308.9489  1.86231689 31803
BEIDOU-3 M11 (C25)      
1 43603U 18067B   23119.86621616 -.00000030  00000+0  00000+0 0  9992
2 43603  54.2817 219.8621 0003990  11.8454  37.0104  1.86231585 31837
BEIDOU-3 M13 (C32)      
1 43622U 18072A   23119.37190509  .00000052  00000+0  00000+0 0  9990
2 43622  55.6832 100.7494 0009166 291.5527 174.0321  1.86231482 31339
BEIDOU-3 M14 (C33)      
1 43623U 18072B   23120.19476653  .00000054  00000+0  00000+0 0  9992
2 43623  55.6855 100.7146 0006806 309.2132  78.3012  1.86231514 31357
BEIDOU-3 M16 (C35)      
1 43647U 18078A   23117.35873823 -.00000089  00000+0  10000-3 0  9992
2 43647  54.9834 339.8117 0008460  13.8953 165.5104  1.86227223 30804
BEIDOU-3 M15 (C34)      
1 43648U 18078B   23120.23762612 -.00000073  00000+0  00000+0 0  9995
2 43648  54.9779 339.7168 0005398  25.3132 194.3548  1.86232162 30879
BEIDOU-3 G1 (C59)       
1 43683U 18085A   23120.13024690 -.00000273  00000+0  00000+0 0  9990
2 43683   1.2508 134.3286 0004451 309.6518 320.7853  1.00268447 16585
BEIDOU-3 M17 (C36)      
1 43706U 18093A   23118.98514947 -.00000034  00000+0  00000+0 0  9999
2 43706  54.2808 221.2024 0008602 276.4205  83.4940  1.86232110 30212
BEIDOU-3 M18 (C37)      
1 43707U 18093B   23119.40182664 -.00000033  00000+0  00000+0 0  9994
2 43707  54.2817 221.1789 0006696 307.9718  62.2329  1.86229891 30218
BEIDOU-3 IGSO-1 (C38)   
1 44204U 19023A   23120.31326375 -.00000220  00000+0  00000+0 0  9990
2 44204  57.0333  49.5868 0018914 207.4952 192.8747  1.00267151 14892
BEIDOU-2 G8 (C01)       
1 44231U 19027A   23120.57766578 -.00000241  00000+0  00000+0 0  9998
2 44231   1.6419  80.9765 0004360 134.8378 354.9605  1.00270069 14607
BEIDOU-3 IGSO-2 (C39)   
1 44337U 19035A   23119.72777368 -.00000097  00000+0  00000+0 0  9997
2 44337  55.1386 168.9150 0030499 200.3819 228.7733  1.00260713 14220
BEIDOU-3 M24 (C46)      
1 44542U 19061A   23119.45919343 -.00000033  00000+0  00000+0 0  9995
2 44542  54.5075 221.3906 0007254 347.7339  12.2603  1.86231261 24475
BEIDOU-3 M23 (C45)      
1 44543U 19061B   23120.20401138 -.00000029  00000+0  00000+0 0  9994
2 44543  54.5061 221.3338 0004369 340.8026  70.2751  1.86231609 24486
BEIDOU-3 IGSO-3 (C40)   
1 44709U 19073A   23119.36675991 -.00000164  00000+0  00000+0 0  9996
2 44709  56.7519 293.0862 0030402 177.1234 357.8800  1.00266445 12960
BEIDOU-3 M22 (C44)      
1 44793U 19078A   23120.14495373 -.00000074  00000+0  10000-3 0  9991
2 44793  54.8311 339.6983 0007320  22.1243 181.6089  1.86232128 23346
BEIDOU-3 M21 (C43)      
1 44794U 19078B   23119.70378515 -.00000076  00000+0  00000+0 0  9997
2 44794  54.8050 339.6987 0005213  19.0778 161.1050  1.86232600 23333
BEIDOU-3 M19 (C41)      
1 44864U 19090A   23119.87443140  .00000054  00000+0  00000+0 0  9999
2 44864  55.6172 100.9267 0019688 276.7433 211.9150  1.86231801 22927
BEIDOU-3 M20 (C42)      
1 44865U 19090B   23118.67098096  .00000048  00000+0  00000+0 0  9996
2 44865  55.6188 100.9996 0017732 288.4996 203.1134  1.86231704 22877
BEIDOU-3 G2 (C60)       
1 45344U 20017A   23119.93873149 -.00000137  00000+0  00000+0 0  9990
2 45344   1.9999   9.3281 0002308  69.5162 196.7676  1.00271805 11798
BEIDOU-3 G3 (C61)       
1 45807U 20040A   23119.74840970 -.00000353  00000+0  00000+0 0  9995
2 45807   0.7872 323.1565 0006369 327.7755 306.5153  1.00274721 10609
